STARLINK-36983          
1 68323U 26059C   26090.66668981 -.00004857  00000+0 -21081-4 0  9992
2 68323  53.1605 252.7431 0000868  69.1247 143.7659 15.80877302  2579
